GLOBALSTAR M063         
1 26081U 00008A   24200.44768450 -.00000018  00000+0  94750-3 0  9998
2 26081  51.9946 270.5156 0004326  38.9063 334.2613 11.86157378117977
GLOBALSTAR M062         
1 26082U 00008B   24201.49455663 -.00000196  00000+0 -69739-3 0  9991
2 26082  51.9872 354.1127 0007809 120.7826 281.0021 12.43440191117737
GLOBALSTAR M060         
1 26083U 00008C   24201.43474977 -.00000092  00000+0 -62543-5 0  9998
2 26083  52.0011 267.2229 0003765 169.2777 204.6434 12.17637366112009
GLOBALSTAR M064         
1 26084U 00008D   24201.44404971 -.00000094  00000+0 -15085-3 0  9996
2 26084  52.0051  10.6399 0002141 120.1513 239.9532 11.88520272127643
GLOBALSTAR M065         
1 31571U 07020A   24201.28189601 -.00000067  00000+0  20499-3 0  9990
2 31571  51.9877 159.4963 0009865 291.9094 215.6878 12.61974479791672
GLOBALSTAR M069         
1 31573U 07020C   24200.93656323 -.00000080  00000+0  13111-3 0  9991
2 31573  51.9947 116.3324 0000865  23.8427  54.7346 12.62277343792465
GLOBALSTAR M072         
1 31574U 07020D   24201.24982758 -.00000065  00000+0  21675-3 0  9998
2 31574  52.0056 211.3485 0000487 270.2794 170.1083 12.62260179790938
GLOBALSTAR M071         
1 31576U 07020F   24201.53813449 -.00000080  00000+0  13011-3 0  9994
2 31576  52.0062 119.6945 0000950  53.9117 117.6767 12.62270013792450
